{"type": "FeatureCollection", "features": [ {"type": "Feature", "properties": {"norad_id": 54234, "name": "NOAA 21 (JPSS-2)", "group": "weather", "lat": -80.07505535153498, "lon": -5.93295749046271, "alt_km": 834.5921427388257, "timestamp": "2025-12-22T05:49:03.125002+00:00", "meta": {"OBJECT_NAME": "NOAA 21 (JPSS-2)", "OBJECT_ID": "2022-150A", "EPOCH": "2025-12-21T20:04:07.968576", "MEAN_MOTION": 14.1952645, "ECCENTRICITY": 0.0001815, "INCLINATION": 98.7475, "RA_OF_ASC_NODE": 292.0314, "ARG_OF_PERICENTER": 19.7364, "MEAN_ANOMALY": 340.3882, "EPHEMERIS_TYPE": 0, "CLASSIFICATION_TYPE": "U", "NORAD_CAT_ID": 54234, "ELEMENT_SET_NO": 999, "REV_AT_EPOCH": 16138, "BSTAR": 4.4681e-05, "MEAN_MOTION_DOT": 5e-07, "MEAN_MOTION_DDOT": 0}, "tle": {"line1": "1 54234U 22150A   25355.83620334  .00000050  00000+0  44681-4 0  9998", "line2": "2 54234  98.7475 292.0314 0001815  19.7364 340.3882 14.19526450161380"}}, "geometry": {"type": "Point", "coordinates": [-5.93295749046271, -80.07505535153498]}}, {"type": "Feature", "properties": {"norad_id": 54743, "name": "METEOSAT-12 (MTG-I1)", "group": "weather", "lat": 0.3207238985146182, "lon": 177.97676019506181, "alt_km": 35786.00789657012, "timestamp": "2025-12-22T05:49:03.125014+00:00", "meta": {"OBJECT_NAME": "METEOSAT-12 (MTG-I1)", "OBJECT_ID": "2022-170C", "EPOCH": "2025-12-21T18:19:56.678016", "MEAN_MOTION": 1.00270703, "ECCENTRICITY": 0.0001496, "INCLINATION": 0.6961, "RA_OF_ASC_NODE": 25.0874, "ARG_OF_PERICENTER": 239.9532, "MEAN_ANOMALY": 100.2119, "EPHEMERIS_TYPE": 0, "CLASSIFICATION_TYPE": "U", "NORAD_CAT_ID": 54743, "ELEMENT_SET_NO": 999, "REV_AT_EPOCH": 1119, "BSTAR": 0, "MEAN_MOTION_DOT": 1.5e-07, "MEAN_MOTION_DDOT": 0}, "tle": {"line1": "1 54743U 22170C   25355.76385044  .00000015  00000+0  00000+0 0  9996", "line2": "2 54743   0.6961  25.0874 0001496 239.9532 100.2119  1.00270703 11192"}}, "geometry": {"type": "Point", "coordinates": [177.97676019506181, 0.3207238985146182]}}, {"type": "Feature", "properties": {"norad_id": 55973, "name": "TIANMU-1 03", "group": "weather", "lat": 30.781951288981393, "lon": 154.65306631039965, "alt_km": 438.3658747580621, "timestamp": "2025-12-22T05:49:03.125026+00:00", "meta": {"OBJECT_NAME": "TIANMU-1 03", "OBJECT_ID": "2023-039A", "EPOCH": "2025-12-21T20:20:01.058208", "MEAN_MOTION": 15.41169269, "ECCENTRICITY": 0.0003965, "INCLINATION": 97.5108, "RA_OF_ASC_NODE": 158.7546, "ARG_OF_PERICENTER": 34.7713, "MEAN_ANOMALY": 325.3792, "EPHEMERIS_TYPE": 0, "CLASSIFICATION_TYPE": "U", "NORAD_CAT_ID": 55973, "ELEMENT_SET_NO": 999, "REV_AT_EPOCH": 15346, "BSTAR": 0.00031759, "MEAN_MOTION_DOT": 0.0001309, "MEAN_MOTION_DDOT": 0}, "tle": {"line1": "1 55973U 23039A   25355.84723447  .00013090  00000+0  31759-3 0  9995", "line2": "2 55973  97.5108 158.7546 0003965  34.7713 325.3792 15.41169269153469"}}, "geometry": {"type": "Point", "coordinates": [154.65306631039965, 30.781951288981393]}}, {"type": "Feature", "properties": {"norad_id": 55974, "name": "TIANMU-1 04", "group": "weather", "lat": 22.901578836434293, "lon": -18.4597644231804, "alt_km": 443.3294041225772, "timestamp": "2025-12-22T05:49:03.125036+00:00", "meta": {"OBJECT_NAME": "TIANMU-1 04", "OBJECT_ID": "2023-039B", "EPOCH": "2025-12-21T21:21:01.033920", "MEAN_MOTION": 15.41511603, "ECCENTRICITY": 0.0004595, "INCLINATION": 97.5039, "RA_OF_ASC_NODE": 157.9855, "ARG_OF_PERICENTER": 28.5784, "MEAN_ANOMALY": 331.5714, "EPHEMERIS_TYPE": 0, "CLASSIFICATION_TYPE": "U", "NORAD_CAT_ID": 55974, "ELEMENT_SET_NO": 999, "REV_AT_EPOCH": 15347, "BSTAR": 0.00032652, "MEAN_MOTION_DOT": 0.00013617, "MEAN_MOTION_DDOT": 0}, "tle": {"line1": "1 55974U 23039B   25355.88959530  .00013617  00000+0  32652-3 0  9992", "line2": "2 55974  97.5039 157.9855 0004595  28.5784 331.5714 15.41511603153473"}}, "geometry": {"type": "Point", "coordinates": [-18.4597644231804, 22.901578836434293]}}, {"type": "Feature", "properties": {"norad_id": 55975, "name": "TIANMU-1 05", "group": "weather", "lat": 4.213972494801718, "lon": -20.602418417381543, "alt_km": 446.8404237423001, "timestamp": "2025-12-22T05:49:03.125047+00:00", "meta": {"OBJECT_NAME": "TIANMU-1 05", "OBJECT_ID": "2023-039C", "EPOCH": "2025-12-21T21:15:59.910912", "MEAN_MOTION": 15.41127137, "ECCENTRICITY": 0.0004089, "INCLINATION": 97.5086, "RA_OF_ASC_NODE": 158.4746, "ARG_OF_PERICENTER": 53.4538, "MEAN_ANOMALY": 306.7084, "EPHEMERIS_TYPE": 0, "CLASSIFICATION_TYPE": "U", "NORAD_CAT_ID": 55975, "ELEMENT_SET_NO": 999, "REV_AT_EPOCH": 15345, "BSTAR": 0.00032419, "MEAN_MOTION_DOT": 0.00013346, "MEAN_MOTION_DDOT": 0}, "tle": {"line1": "1 55975U 23039C   25355.88611008  .00013346  00000+0  32419-3 0  9998", "line2": "2 55975  97.5086 158.4746 0004089  53.4538 306.7084 15.41127137153450"}}, "geometry": {"type": "Point", "coordinates": [-20.602418417381543, 4.213972494801718]}}, {"type": "Feature", "properties": {"norad_id": 55976, "name": "TIANMU-1 06", "group": "weather", "lat": 33.075146963297826, "lon": -15.757616838376666, "alt_km": 440.06664759109026, "timestamp": "2025-12-22T05:49:03.125061+00:00", "meta": {"OBJECT_NAME": "TIANMU-1 06", "OBJECT_ID": "2023-039D", "EPOCH": "2025-12-21T21:23:42.455904", "MEAN_MOTION": 15.41563082, "ECCENTRICITY": 0.0004364, "INCLINATION": 97.5097, "RA_OF_ASC_NODE": 158.9528, "ARG_OF_PERICENTER": 47.5981, "MEAN_ANOMALY": 312.5634, "EPHEMERIS_TYPE": 0, "CLASSIFICATION_TYPE": "U", "NORAD_CAT_ID": 55976, "ELEMENT_SET_NO": 999, "REV_AT_EPOCH": 15347, "BSTAR": 0.00032474, "MEAN_MOTION_DOT": 0.00013565, "MEAN_MOTION_DDOT": 0}, "tle": {"line1": "1 55976U 23039D   25355.89146361  .00013565  00000+0  32474-3 0  9999", "line2": "2 55976  97.5097 158.9528 0004364  47.5981 312.5634 15.41563082153479"}}, "geometry": {"type": "Point", "coordinates": [-15.757616838376666, 33.075146963297826]}}, {"type": "Feature", "properties": {"norad_id": 56232, "name": "FENGYUN 3G", "group": "weather", "lat": 5.338402099203498, "lon": -177.10233220524117, "alt_km": 410.6559351636779, "timestamp": "2025-12-22T05:49:03.125072+00:00", "meta": {"OBJECT_NAME": "FENGYUN 3G", "OBJECT_ID": "2023-055A", "EPOCH": "2025-12-21T20:31:45.115392", "MEAN_MOTION": 15.54147027, "ECCENTRICITY": 0.0009247, "INCLINATION": 49.9919, "RA_OF_ASC_NODE": 180.3959, "ARG_OF_PERICENTER": 189.7825, "MEAN_ANOMALY": 170.2964, "EPHEMERIS_TYPE": 0, "CLASSIFICATION_TYPE": "U", "NORAD_CAT_ID": 56232, "ELEMENT_SET_NO": 999, "REV_AT_EPOCH": 15244, "BSTAR": 0.00042453, "MEAN_MOTION_DOT": 0.0002783, "MEAN_MOTION_DDOT": 0}, "tle": {"line1": "1 56232U 23055A   25355.85538328  .00027830  00000+0  42453-3 0  9995", "line2": "2 56232  49.9919 180.3959 0009247 189.7825 170.2964 15.54147027152449"}}, "geometry": {"type": "Point", "coordinates": [-177.10233220524117, 5.338402099203498]}}, {"type": "Feature", "properties": {"norad_id": 57166, "name": "METEOR-M2 3", "group": "weather", "lat": -24.821859993559794, "lon": 53.646196735162476, "alt_km": 814.8474445740458, "timestamp": "2025-12-22T05:49:03.125083+00:00", "meta": {"OBJECT_NAME": "METEOR-M2 3", "OBJECT_ID": "2023-091A", "EPOCH": "2025-12-21T19:49:02.231328", "MEAN_MOTION": 14.24027118, "ECCENTRICITY": 0.000341, "INCLINATION": 98.6364, "RA_OF_ASC_NODE": 49.2059, "ARG_OF_PERICENTER": 341.267, "MEAN_ANOMALY": 18.8383, "EPHEMERIS_TYPE": 0, "CLASSIFICATION_TYPE": "U", "NORAD_CAT_ID": 57166, "ELEMENT_SET_NO": 999, "REV_AT_EPOCH": 12927, "BSTAR": 2.5165e-05, "MEAN_MOTION_DOT": 1.4e-07, "MEAN_MOTION_DDOT": 0}, "tle": {"line1": "1 57166U 23091A   25355.82572027  .00000014  00000+0  25165-4 0  9990", "line2": "2 57166  98.6364  49.2059 0003410 341.2670  18.8383 14.24027118129275"}}, "geometry": {"type": "Point", "coordinates": [53.646196735162476, -24.821859993559794]}}, {"type": "Feature", "properties": {"norad_id": 57399, "name": "TIANMU-1 07", "group": "weather", "lat": 61.498752694963784, "lon": -120.48792500533274, "alt_km": 473.4934825340815, "timestamp": "2025-12-22T05:49:03.125094+00:00", "meta": {"OBJECT_NAME": "TIANMU-1 07", "OBJECT_ID": "2023-101A", "EPOCH": "2025-12-21T19:52:34.657824", "MEAN_MOTION": 15.28190297, "ECCENTRICITY": 0.0005229, "INCLINATION": 97.2862, "RA_OF_ASC_NODE": 45.4777, "ARG_OF_PERICENTER": 58.5446, "MEAN_ANOMALY": 301.6305, "EPHEMERIS_TYPE": 0, "CLASSIFICATION_TYPE": "U", "NORAD_CAT_ID": 57399, "ELEMENT_SET_NO": 999, "REV_AT_EPOCH": 13454, "BSTAR": 0.00023232, "MEAN_MOTION_DOT": 6.312e-05, "MEAN_MOTION_DDOT": 0}, "tle": {"line1": "1 57399U 23101A   25355.82817891  .00006312  00000+0  23232-3 0  9990", "line2": "2 57399  97.2862  45.4777 0005229  58.5446 301.6305 15.28190297134542"}}, "geometry": {"type": "Point", "coordinates": [-120.48792500533274, 61.498752694963784]}}, {"type": "Feature", "properties": {"norad_id": 57400, "name": "TIANMU-1 08", "group": "weather", "lat": -60.622074120191854, "lon": 58.813631242087204, "alt_km": 490.76936368512816, "timestamp": "2025-12-22T05:49:03.125104+00:00", "meta": {"OBJECT_NAME": "TIANMU-1 08", "OBJECT_ID": "2023-101B", "EPOCH": "2025-12-21T20:39:25.184160", "MEAN_MOTION": 15.28172866, "ECCENTRICITY": 0.0007149, "INCLINATION": 97.285, "RA_OF_ASC_NODE": 45.3059, "ARG_OF_PERICENTER": 58.1628, "MEAN_ANOMALY": 302.0307, "EPHEMERIS_TYPE": 0, "CLASSIFICATION_TYPE": "U", "NORAD_CAT_ID": 57400, "ELEMENT_SET_NO": 999, "REV_AT_EPOCH": 13454, "BSTAR": 0.00021733, "MEAN_MOTION_DOT": 5.899e-05, "MEAN_MOTION_DDOT": 0}, "tle": {"line1": "1 57400U 23101B   25355.86070815  .00005899  00000+0  21733-3 0  9997", "line2": "2 57400  97.2850  45.3059 0007149  58.1628 302.0307 15.28172866134544"}}, "geometry": {"type": "Point", "coordinates": [58.813631242087204, -60.622074120191854]}}]}